IRIDIUM 106             
1 41917U 17003A   24148.45599872  .00000428  00000+0  14563-3 0  9996
2 41917  86.3993  42.2522 0001895  94.9504 265.1908 14.34218924385604
IRIDIUM 103             
1 41918U 17003B   24148.44331516  .00000440  00000+0  15022-3 0  9990
2 41918  86.3992  42.1595 0002029  76.5467 283.5955 14.34217934385625
IRIDIUM 109             
1 41919U 17003C   24148.44965713  .00000422  00000+0  14351-3 0  9997
2 41919  86.3993  42.2039 0002443  80.2033 279.9439 14.34218024385595
IRIDIUM 102             
1 41920U 17003D   24148.41794364  .00000076  00000+0  20142-4 0  9999
2 41920  86.3993  42.1567 0002414  86.2402 273.9070 14.34217159385678
IRIDIUM 105             
1 41921U 17003E   24148.59796884  .00000017  00000+0 -88083-6 0  9994
2 41921  86.3990  10.5208 0002031  82.7298 277.4129 14.34202971387555
IRIDIUM 104             
1 41922U 17003F   24148.43064195  .00000447  00000+0  15271-3 0  9993
2 41922  86.3993  42.1824 0002448  77.2922 282.8547 14.34217033385668
IRIDIUM 114             
1 41923U 17003G   24148.78581401  .00000339  00000+0  11404-3 0  9990
2 41923  86.3991  42.0201 0002131  92.6572 267.4868 14.34218630385711
IRIDIUM 108             
1 41924U 17003H   24148.67456390  .00000247  00000+0  81033-4 0  9991
2 41924  86.3988  10.4145 0002044  92.3301 267.8129 14.34216721387551
